     2.01           GLONASS NAV DATA                        RINEX VERSION / TYPE
CCRINEXG V1.4 UX    CDDIS               03-FEB-16 15:37     PGM / RUN BY / DATE 
IGS BROADCAST EPHEMERIS FILE                                COMMENT             
teqc  2013Mar15     GPS Operator        20160203  0:04:     COMMENT             
  2016     2     2   -0.162981450558D-07                    CORR TO SYSTEM TIME 
    17                                                      LEAP SECONDS        
                                                            END OF HEADER       
 7 16  2  2  3 45  0.0-0.587943941355D-05-0.000000000000D+00 0.126300000000D+05
   -0.181852963867D+05 0.184098529816D+01-0.931322574616D-09 0.000000000000D+00
   -0.111083784180D+05 0.556775093079D+00-0.000000000000D+00 0.500000000000D+01
   -0.139767993164D+05-0.283475589752D+01 0.186264514923D-08 0.000000000000D+00
 8 16  2  2  3 45  0.0-0.270344316959D-04 0.000000000000D+00 0.126000000000D+05
   -0.249723144531D+05-0.384413719177D+00-0.931322574616D-09 0.000000000000D+00
   -0.453438281250D+04 0.722398757935D-01-0.931322574616D-09 0.600000000000D+01
    0.265962939453D+04-0.354291534424D+01 0.000000000000D+00 0.000000000000D+00
 9 16  2  2  3 45  0.0 0.257259234786D-04 0.909494701773D-12 0.126000000000D+05
    0.906358007812D+04 0.121615791321D+01-0.931322574616D-09 0.000000000000D+00
   -0.192536083984D+05-0.151260471344D+01-0.931322574616D-09-0.200000000000D+01
    0.141292714844D+05-0.282705020904D+01-0.000000000000D+00 0.000000000000D+00
10 16  2  2  3 45  0.0 0.651460140944D-05 0.000000000000D+00 0.126000000000D+05
   -0.499677832031D+04 0.216288185120D+01-0.931322574616D-09 0.100000000000D+01
   -0.978055615234D+04-0.230270576477D+01-0.186264514923D-08-0.700000000000D+01
    0.229991621094D+05-0.515214920044D+00-0.931322574616D-09 0.000000000000D+00
11 16  2  2  3 45  0.0 0.230409204960D-04 0.000000000000D+00 0.126000000000D+05
   -0.165898447266D+05 0.183506965637D+01-0.000000000000D+00 0.000000000000D+00
    0.520803466797D+04-0.178316307068D+01-0.186264514923D-08 0.000000000000D+00
    0.186243593750D+05 0.214129734039D+01-0.931322574616D-09 0.000000000000D+00
12 16  2  2  3 45  0.0 0.344496220350D-04 0.181898940355D-11 0.126000000000D+05
   -0.184222431641D+05 0.423148155212D+00 0.000000000000D+00 0.000000000000D+00
    0.175047988281D+05-0.165348052978D+00-0.000000000000D+00-0.100000000000D+01
    0.298324365234D+04 0.353928565979D+01-0.931322574616D-09 0.000000000000D+00
13 16  2  2  3 45  0.0 0.109318643808D-04-0.000000000000D+00 0.126000000000D+05
   -0.874132519531D+04-0.123407649994D+01 0.931322574616D-09 0.000000000000D+00
    0.190975332031D+05 0.156058788300D+01 0.931322574616D-09-0.200000000000D+01
   -0.144890102539D+05 0.280449485779D+01 0.000000000000D+00 0.000000000000D+00
14 16  2  2  3 45  0.0 0.276347622275D-03 0.454747350886D-11 0.126000000000D+05
    0.598201904297D+04-0.217417907715D+01 0.931322574616D-09 0.000000000000D+00
    0.887997656250D+04 0.230943489075D+01 0.186264514923D-08-0.700000000000D+01
   -0.231729609375D+05 0.317912101746D+00 0.931322574616D-09 0.000000000000D+00
15 16  2  2  3 45  0.0 0.627962872386D-04 0.909494701773D-12 0.126000000000D+05
    0.161277099609D+05-0.192712116241D+01 0.000000000000D+00 0.000000000000D+00
   -0.425113134766D+04 0.182241344452D+01 0.186264514923D-08 0.000000000000D+00
   -0.193319970703D+05-0.199747180939D+01 0.186264514923D-08 0.000000000000D+00
16 16  2  2  3 45  0.0 0.301254913211D-04 0.000000000000D+00 0.126000000000D+05
    0.180818300781D+05-0.320015907288D+00 0.000000000000D+00 0.000000000000D+00
   -0.178180703125D+05 0.811424255371D-01 0.000000000000D+00-0.100000000000D+01
   -0.205964160156D+04-0.357170104981D+01 0.931322574616D-09 0.000000000000D+00
17 16  2  2  3 45  0.0 0.706473365426D-04 0.454747350886D-11 0.126000000000D+05
    0.932692431641D+04 0.128031349182D+01-0.931322574616D-09 0.100000000000D+01
   -0.189711459961D+05-0.147738838196D+01-0.931322574616D-09-0.600000000000D+01
    0.142800849609D+05-0.280924320221D+01-0.000000000000D+00 0.000000000000D+00
18 16  2  2  3 45  0.0 0.872630625963D-04 0.181898940355D-11 0.126300000000D+05
    0.124438535156D+05 0.885349273682D+00 0.000000000000D+00 0.000000000000D+00
    0.804455224609D+04 0.270277404785D+01 0.000000000000D+00-0.300000000000D+01
    0.207996567383D+05-0.157031059265D+01-0.279396772385D-08 0.000000000000D+00
19 16  2  2  3 45  0.0-0.147217884660D-03-0.000000000000D+00 0.126000000000D+05
    0.701593212891D+04 0.713142395020D+00-0.000000000000D+00 0.000000000000D+00
   -0.117756494141D+05 0.286055278778D+01-0.186264514923D-08 0.300000000000D+01
    0.215179111328D+05 0.133303070068D+01-0.931322574616D-09 0.000000000000D+00
20 16  2  2  3 45  0.0-0.217378139496D-03-0.181898940355D-11 0.126000000000D+05
   -0.235464892578D+04 0.139834403992D+00-0.931322574616D-09 0.000000000000D+00
   -0.237929394531D+05 0.121610260010D+01-0.186264514923D-08 0.200000000000D+01
    0.882750097656D+04 0.332376384735D+01 0.000000000000D+00 0.000000000000D+00
21 16  2  2  3 45  0.0 0.493135303259D-04 0.181898940355D-11 0.126300000000D+05
   -0.102830258789D+05-0.477336883545D+00-0.931322574616D-09 0.000000000000D+00
   -0.219745239258D+05-0.990299224853D+00-0.931322574616D-09 0.400000000000D+01
   -0.791507910156D+04 0.336432266235D+01 0.186264514923D-08 0.000000000000D+00
22 16  2  2  3 45  0.0 0.190295279026D-03 0.000000000000D+00 0.126900000000D+05
   -0.123038237305D+05-0.886884689331D+00-0.000000000000D+00 0.000000000000D+00
   -0.738810253906D+04-0.275116825104D+01 0.000000000000D+00-0.300000000000D+01
   -0.210437055664D+05 0.149601078033D+01 0.186264514923D-08 0.000000000000D+00
23 16  2  2  3 45  0.0-0.766115263104D-04-0.363797880709D-11 0.126000000000D+05
   -0.672534521484D+04-0.751171112061D+00 0.000000000000D+00 0.000000000000D+00
    0.121960102539D+05-0.283080005646D+01 0.931322574616D-09 0.300000000000D+01
   -0.213717509766D+05-0.137910079956D+01 0.931322574616D-09 0.000000000000D+00
24 16  2  2  3 45  0.0-0.133330933750D-03 0.000000000000D+00 0.126300000000D+05
    0.208957421875D+04-0.206434249878D+00 0.931322574616D-09 0.000000000000D+00
    0.234210292969D+05-0.135209083557D+01 0.186264514923D-08 0.200000000000D+01
   -0.991627246094D+04-0.324177742004D+01 0.000000000000D+00 0.000000000000D+00
 1 16  2  2  4 15  0.0-0.146233476698D-03 0.000000000000D+00 0.144000000000D+05
   -0.216996240234D+05-0.174674987793D+01-0.931322574616D-09 0.000000000000D+00
    0.422657958984D+04-0.420322418213D-01-0.931322574616D-09 0.100000000000D+01
    0.127344672852D+05-0.295961475372D+01-0.000000000000D+00 0.000000000000D+00
 2 16  2  2  4 15  0.0 0.174456275999D-03 0.181898940355D-11 0.144300000000D+05
   -0.507916357422D+04-0.309939861298D+01 0.000000000000D+00 0.000000000000D+00
    0.103537294922D+05-0.274493217468D+00-0.931322574616D-09-0.400000000000D+01
    0.227771245117D+05-0.570430755615D+00-0.186264514923D-08 0.000000000000D+00
 3 16  2  2  4 15  0.0 0.614067539573D-04 0.909494701773D-12 0.144300000000D+05
    0.140410498047D+05-0.252558040619D+01 0.000000000000D+00 0.000000000000D+00
    0.103349165039D+05-0.342917442322D+00 0.000000000000D+00 0.500000000000D+01
    0.186622807617D+05 0.209066009522D+01-0.279396772385D-08 0.000000000000D+00
 4 16  2  2  4 15  0.0 0.155657529831D-03 0.909494701773D-12 0.144300000000D+05
    0.249759331055D+05-0.437598228455D+00 0.931322574616D-09 0.000000000000D+00
    0.401304101562D+04-0.200118064880D+00 0.931322574616D-09 0.600000000000D+01
    0.333054492188D+04 0.352960205078D+01-0.931322574616D-09 0.000000000000D+00
 5 16  2  2  4 15  0.0 0.577419996262D-07-0.909494701773D-12 0.150900000000D+05
    0.212387553711D+05 0.182961750030D+01 0.931322574616D-09 0.000000000000D+00
   -0.460236767578D+04 0.515708923340D-01 0.186264514923D-08 0.100000000000D+01
   -0.133654243164D+05 0.289337348938D+01 0.931322574616D-09 0.000000000000D+00
 6 16  2  2  4 15  0.0 0.830544158816D-04 0.909494701773D-12 0.144000000000D+05
    0.418949316406D+04 0.310284519196D+01 0.000000000000D+00 0.000000000000D+00
   -0.107109790039D+05 0.258356094360D+00 0.931322574616D-09-0.400000000000D+01
   -0.227888979492D+05 0.446637153625D+00 0.279396772385D-08 0.000000000000D+00
 7 16  2  2  4 15  0.0-0.588037073612D-05-0.000000000000D+00 0.144000000000D+05
   -0.142369404297D+05 0.251434040070D+01-0.000000000000D+00 0.000000000000D+00
   -0.102696113281D+05 0.340910911560D+00-0.000000000000D+00 0.500000000000D+01
   -0.184713559570D+05-0.212665843964D+01 0.186264514923D-08 0.000000000000D+00
 8 16  2  2  4 15  0.0-0.270344316959D-04 0.000000000000D+00 0.144000000000D+05
   -0.248732177734D+05 0.500072479248D+00-0.931322574616D-09 0.000000000000D+00
   -0.424749560547D+04 0.206131935120D+00-0.931322574616D-09 0.600000000000D+01
   -0.373801025391D+04-0.351943302154D+01 0.931322574616D-09 0.000000000000D+00
 9 16  2  2  4 15  0.0 0.257287174463D-04 0.909494701773D-12 0.144000000000D+05
    0.106344570312D+05 0.540616035461D+00-0.931322574616D-09 0.000000000000D+00
   -0.216038725586D+05-0.105622577667D+01-0.931322574616D-09-0.200000000000D+01
    0.856230273438D+04-0.331838703155D+01 0.000000000000D+00 0.000000000000D+00
10 16  2  2  4 15  0.0 0.651553273201D-05 0.000000000000D+00 0.144000000000D+05
   -0.154655322266D+04 0.164682292938D+01-0.931322574616D-09 0.100000000000D+01
   -0.140586108398D+05-0.240381050110D+01-0.186264514923D-08-0.700000000000D+01
    0.211923413086D+05-0.147946262360D+01-0.931322574616D-09 0.000000000000D+00
11 16  2  2  4 15  0.0 0.230418518186D-04 0.000000000000D+00 0.144000000000D+05
   -0.132870512695D+05 0.178971481323D+01-0.931322574616D-09 0.000000000000D+00
    0.144011425781D+04-0.238013935089D+01-0.186264514923D-08 0.000000000000D+00
    0.217067670898D+05 0.126151847839D+01-0.931322574616D-09 0.000000000000D+00
